{"type": "FeatureCollection", "features": [{"type": "Feature", "properties": {"norad_id": 24876, "name": "GPS BIIR-2  (PRN 13)", "group": "gps-ops", "lat": 16.614229733024118, "lon": 117.27638790908313, "alt_km": 19973.502167602022, "timestamp": "2025-12-18T17:50:15.215986+00:00", "meta": {"OBJECT_NAME": "GPS BIIR-2  (PRN 13)", "OBJECT_ID": "1997-035A", "EPOCH": "2025-12-17T17:14:35.709504", "MEAN_MOTION": 2.00563699, "ECCENTRICITY": 0.00967771, "INCLINATION": 55.8976, "RA_OF_ASC_NODE": 105.6742, "ARG_OF_PERICENTER": 56.9662, "MEAN_ANOMALY": 303.9295, "EPHEMERIS_TYPE": 0, "CLASSIFICATION_TYPE": "U", "NORAD_CAT_ID": 24876, "ELEMENT_SET_NO": 999, "REV_AT_EPOCH": 20831, "BSTAR": 0, "MEAN_MOTION_DOT": -2.3e-07, "MEAN_MOTION_DDOT": 0}, "tle": {"line1": "1 24876U 97035A   25351.71846886 -.00000023  00000+0  00000+0 0  9999", "line2": "2 24876  55.8976 105.6742 0096777  56.9662 303.9295  2.00563699208319"}}, "geometry": {"type": "Point", "coordinates": [117.27638790908313, 16.614229733024118]}}, {"type": "Feature", "properties": {"norad_id": 26360, "name": "GPS BIIR-4  (PRN 20)", "group": "gps-ops", "lat": 49.22829765089187, "lon": 152.45009842319493, "alt_km": 20242.417960825427, "timestamp": "2025-12-18T17:50:15.216013+00:00", "meta": {"OBJECT_NAME": "GPS BIIR-4  (PRN 20)", "OBJECT_ID": "2000-025A", "EPOCH": "2025-12-18T04:28:10.585632", "MEAN_MOTION": 2.00567362, "ECCENTRICITY": 0.0038886, "INCLINATION": 55.0484, "RA_OF_ASC_NODE": 26.6175, "ARG_OF_PERICENTER": 242.5017, "MEAN_ANOMALY": 188.1576, "EPHEMERIS_TYPE": 0, "CLASSIFICATION_TYPE": "U", "NORAD_CAT_ID": 26360, "ELEMENT_SET_NO": 999, "REV_AT_EPOCH": 18764, "BSTAR": 0, "MEAN_MOTION_DOT": -7.5e-07, "MEAN_MOTION_DDOT": 0}, "tle": {"line1": "1 26360U 00025A   25352.18623363 -.00000075  00000+0  00000+0 0  9994", "line2": "2 26360  55.0484  26.6175 0038886 242.5017 188.1576  2.00567362187649"}}, "geometry": {"type": "Point", "coordinates": [152.45009842319493, 49.22829765089187]}}, {"type": "Feature", "properties": {"norad_id": 26407, "name": "GPS BIIR-5  (PRN 22)", "group": "gps-ops", "lat": -36.97856243264418, "lon": -169.62594894176144, "alt_km": 19858.601264446985, "timestamp": "2025-12-18T17:50:15.216029+00:00", "meta": {"OBJECT_NAME": "GPS BIIR-5  (PRN 22)", "OBJECT_ID": "2000-040A", "EPOCH": "2025-12-18T01:31:29.889696", "MEAN_MOTION": 2.00568104, "ECCENTRICITY": 0.01257268, "INCLINATION": 54.8896, "RA_OF_ASC_NODE": 222.3573, "ARG_OF_PERICENTER": 301.8987, "MEAN_ANOMALY": 239.8065, "EPHEMERIS_TYPE": 0, "CLASSIFICATION_TYPE": "U", "NORAD_CAT_ID": 26407, "ELEMENT_SET_NO": 999, "REV_AT_EPOCH": 18631, "BSTAR": 0, "MEAN_MOTION_DOT": 7.4e-07, "MEAN_MOTION_DDOT": 0}, "tle": {"line1": "1 26407U 00040A   25352.06354039  .00000074  00000+0  00000+0 0  9999", "line2": "2 26407  54.8896 222.3573 0125726 301.8987 239.8065  2.00568104186312"}}, "geometry": {"type": "Point", "coordinates": [-169.62594894176144, -36.97856243264418]}}, {"type": "Feature", "properties": {"norad_id": 27663, "name": "GPS BIIR-8  (PRN 16)", "group": "gps-ops", "lat": 54.914873115453, "lon": -48.9230557297631, "alt_km": 19861.672463373452, "timestamp": "2025-12-18T17:50:15.216044+00:00", "meta": {"OBJECT_NAME": "GPS BIIR-8  (PRN 16)", "OBJECT_ID": "2003-005A", "EPOCH": "2025-12-18T07:42:25.953408", "MEAN_MOTION": 2.00570667, "ECCENTRICITY": 0.01476507, "INCLINATION": 54.922, "RA_OF_ASC_NODE": 222.1563, "ARG_OF_PERICENTER": 51.8768, "MEAN_ANOMALY": 91.7669, "EPHEMERIS_TYPE": 0, "CLASSIFICATION_TYPE": "U", "NORAD_CAT_ID": 27663, "ELEMENT_SET_NO": 999, "REV_AT_EPOCH": 16768, "BSTAR": 0, "MEAN_MOTION_DOT": 7.5e-07, "MEAN_MOTION_DDOT": 0}, "tle": {"line1": "1 27663U 03005A   25352.32113372  .00000075  00000+0  00000+0 0  9991", "line2": "2 27663  54.9220 222.1563 0147650  51.8768  91.7669  2.00570667167686"}}, "geometry": {"type": "Point", "coordinates": [-48.9230557297631, 54.914873115453]}}, {"type": "Feature", "properties": {"norad_id": 28190, "name": "GPS BIIR-11 (PRN 19)", "group": "gps-ops", "lat": -49.50672998559884, "lon": 158.04238715324618, "alt_km": 20137.275157825443, "timestamp": "2025-12-18T17:50:15.216057+00:00", "meta": {"OBJECT_NAME": "GPS BIIR-11 (PRN 19)", "OBJECT_ID": "2004-009A", "EPOCH": "2025-12-18T01:19:43.105728", "MEAN_MOTION": 2.00560667, "ECCENTRICITY": 0.01084092, "INCLINATION": 54.9808, "RA_OF_ASC_NODE": 283.0048, "ARG_OF_PERICENTER": 167.7197, "MEAN_ANOMALY": 302.5438, "EPHEMERIS_TYPE": 0, "CLASSIFICATION_TYPE": "U", "NORAD_CAT_ID": 28190, "ELEMENT_SET_NO": 999, "REV_AT_EPOCH": 15931, "BSTAR": 0, "MEAN_MOTION_DOT": -5.1e-07, "MEAN_MOTION_DDOT": 0}, "tle": {"line1": "1 28190U 04009A   25352.05536002 -.00000051  00000+0  00000+0 0  9996", "line2": "2 28190  54.9808 283.0048 0108409 167.7197 302.5438  2.00560667159317"}}, "geometry": {"type": "Point", "coordinates": [158.04238715324618, -49.50672998559884]}}, {"type": "Feature", "properties": {"norad_id": 28474, "name": "GPS BIIR-13 (PRN 02)", "group": "gps-ops", "lat": -40.894990187459754, "lon": -64.81835069171456, "alt_km": 19732.30961113645, "timestamp": "2025-12-18T17:50:15.216070+00:00", "meta": {"OBJECT_NAME": "GPS BIIR-13 (PRN 02)", "OBJECT_ID": "2004-045A", "EPOCH": "2025-12-18T01:39:38.765952", "MEAN_MOTION": 2.00569875, "ECCENTRICITY": 0.01708529, "INCLINATION": 55.238, "RA_OF_ASC_NODE": 332.1914, "ARG_OF_PERICENTER": 309.4802, "MEAN_ANOMALY": 231.0384, "EPHEMERIS_TYPE": 0, "CLASSIFICATION_TYPE": "U", "NORAD_CAT_ID": 28474, "ELEMENT_SET_NO": 999, "REV_AT_EPOCH": 15479, "BSTAR": 0, "MEAN_MOTION_DOT": -8.7e-07, "MEAN_MOTION_DDOT": 0}, "tle": {"line1": "1 28474U 04045A   25352.06919868 -.00000087  00000+0  00000+0 0  9996", "line2": "2 28474  55.2380 332.1914 0170852 309.4802 231.0384  2.00569875154791"}}, "geometry": {"type": "Point", "coordinates": [-64.81835069171456, -40.894990187459754]}}, {"type": "Feature", "properties": {"norad_id": 28874, "name": "GPS BIIRM-1 (PRN 17)", "group": "gps-ops", "lat": -54.80925455836476, "lon": -177.1911499679147, "alt_km": 19877.8379266596, "timestamp": "2025-12-18T17:50:15.216081+00:00", "meta": {"OBJECT_NAME": "GPS BIIRM-1 (PRN 17)", "OBJECT_ID": "2005-038A", "EPOCH": "2025-12-18T01:19:16.809024", "MEAN_MOTION": 2.00578146, "ECCENTRICITY": 0.01314775, "INCLINATION": 55.0272, "RA_OF_ASC_NODE": 280.4869, "ARG_OF_PERICENTER": 293.6658, "MEAN_ANOMALY": 195.7064, "EPHEMERIS_TYPE": 0, "CLASSIFICATION_TYPE": "U", "NORAD_CAT_ID": 28874, "ELEMENT_SET_NO": 999, "REV_AT_EPOCH": 14820, "BSTAR": 0, "MEAN_MOTION_DOT": -4.7e-07, "MEAN_MOTION_DDOT": 0}, "tle": {"line1": "1 28874U 05038A   25352.05505566 -.00000047  00000+0  00000+0 0  9994", "line2": "2 28874  55.0272 280.4869 0131477 293.6658 195.7064  2.00578146148201"}}, "geometry": {"type": "Point", "coordinates": [-177.1911499679147, -54.80925455836476]}}, {"type": "Feature", "properties": {"norad_id": 29486, "name": "GPS BIIRM-2 (PRN 31)", "group": "gps-ops", "lat": 8.085798768226086, "lon": -27.287444311919955, "alt_km": 20313.330796907176, "timestamp": "2025-12-18T17:50:15.216093+00:00", "meta": {"OBJECT_NAME": "GPS BIIRM-2 (PRN 31)", "OBJECT_ID": "2006-042A", "EPOCH": "2025-12-16T18:24:54.505728", "MEAN_MOTION": 2.00554045, "ECCENTRICITY": 0.01073341, "INCLINATION": 54.6946, "RA_OF_ASC_NODE": 158.5809, "ARG_OF_PERICENTER": 52.0567, "MEAN_ANOMALY": 130.2096, "EPHEMERIS_TYPE": 0, "CLASSIFICATION_TYPE": "U", "NORAD_CAT_ID": 29486, "ELEMENT_SET_NO": 999, "REV_AT_EPOCH": 14073, "BSTAR": 0, "MEAN_MOTION_DOT": 8.7e-07, "MEAN_MOTION_DDOT": 0}, "tle": {"line1": "1 29486U 06042A   25350.76729752  .00000087  00000+0  00000+0 0  9994", "line2": "2 29486  54.6946 158.5809 0107334  52.0567 130.2096  2.00554045140735"}}, "geometry": {"type": "Point", "coordinates": [-27.287444311919955, 8.085798768226086]}}, {"type": "Feature", "properties": {"norad_id": 29601, "name": "GPS BIIRM-3 (PRN 12)", "group": "gps-ops", "lat": -37.20854343020712, "lon": 73.33400827278383, "alt_km": 20363.79812263976, "timestamp": "2025-12-18T17:50:15.216105+00:00", "meta": {"OBJECT_NAME": "GPS BIIRM-3 (PRN 12)", "OBJECT_ID": "2006-052A", "EPOCH": "2025-12-17T22:21:49.009536", "MEAN_MOTION": 2.00574024, "ECCENTRICITY": 0.00876985, "INCLINATION": 54.9696, "RA_OF_ASC_NODE": 221.1922, "ARG_OF_PERICENTER": 87.4131, "MEAN_ANOMALY": 273.6858, "EPHEMERIS_TYPE": 0, "CLASSIFICATION_TYPE": "U", "NORAD_CAT_ID": 29601, "ELEMENT_SET_NO": 999, "REV_AT_EPOCH": 13977, "BSTAR": 0, "MEAN_MOTION_DOT": 7.5e-07, "MEAN_MOTION_DDOT": 0}, "tle": {"line1": "1 29601U 06052A   25351.93181724  .00000075  00000+0  00000+0 0  9992", "line2": "2 29601  54.9696 221.1922 0087698  87.4131 273.6858  2.00574024139770"}}, "geometry": {"type": "Point", "coordinates": [73.33400827278383, -37.20854343020712]}}, {"type": "Feature", "properties": {"norad_id": 32260, "name": "GPS BIIRM-4 (PRN 15)", "group": "gps-ops", "lat": 4.000272117391324, "lon": 90.42595447430757, "alt_km": 20101.753481986107, "timestamp": "2025-12-18T17:50:15.216117+00:00", "meta": {"OBJECT_NAME": "GPS BIIRM-4 (PRN 15)", "OBJECT_ID": "2007-047A", "EPOCH": "2025-12-16T05:50:40.680960", "MEAN_MOTION": 2.00564415, "ECCENTRICITY": 0.01640743, "INCLINATION": 53.9576, "RA_OF_ASC_NODE": 87.6137, "ARG_OF_PERICENTER": 85.2864, "MEAN_ANOMALY": 276.5744, "EPHEMERIS_TYPE": 0, "CLASSIFICATION_TYPE": "U", "NORAD_CAT_ID": 32260, "ELEMENT_SET_NO": 999, "REV_AT_EPOCH": 13314, "BSTAR": 0, "MEAN_MOTION_DOT": -5.5e-07, "MEAN_MOTION_DDOT": 0}, "tle": {"line1": "1 32260U 07047A   25350.24352640 -.00000055  00000+0  00000+0 0  9991", "line2": "2 32260  53.9576  87.6137 0164074  85.2864 276.5744  2.00564415133141"}}, "geometry": {"type": "Point", "coordinates": [90.42595447430757, 4.000272117391324]}}]}